NORAD_CAT_ID,OBJECT_NAME,OBJECT_TYPE,EPOCH,MEAN_MOTION,ECCENTRICITY,INCLINATION,RA_OF_ASC_NODE,ARG_OF_PERICENTER,MEAN_ANOMALY,BSTAR,MEAN_MOTION_DOT,MEAN_MOTION_DDOT,TLE_LINE0,TLE_LINE1,TLE_LINE2,SEMIMAJOR_AXIS,PERIOD,APOGEE,PERIGEE,DECAYED
54173.0,STARLINK-5242,PAYLOAD,2023-02-24 12:00:22,15.08834295,0.0001071,53.2164,303.0453,82.5487,277.5627,0.00012566,1.712e-05,0.0,0 STARLINK-5242,1 54173U 22141S   23055.50025488  .00001712  00000-0  12566-3 0  9991,2 54173  53.2164 303.0453 0001071  82.5487 277.5627 15.08834295 18419,6917.898,95.438,540.504,539.022,0.0
54173.0,STARLINK-5242,PAYLOAD,2023-02-24 18:21:55,15.08830814,9.47e-05,53.2179,301.8541,115.7068,244.4022,2.2707e-05,7.4e-07,0.0,0 STARLINK-5242,1 54173U 22141S   23055.76522069  .00000074  00000-0  22707-4 0  9995,2 54173  53.2179 301.8541 0000947 115.7068 244.4022 15.08830814 18453,6917.908,95.438,540.429,539.118,0.0
54173.0,STARLINK-5242,PAYLOAD,2023-02-24 19:57:18,15.08828286,0.0001017,53.2177,301.5571,105.6639,254.4465,7.89e-06,-1.62e-06,0.0,0 STARLINK-5242,1 54173U 22141S   23055.83146373 -.00000162  00000-0  78900-5 0  9999,2 54173  53.2177 301.5571 0001017 105.6639 254.4465 15.08828286 18465,6917.916,95.438,540.485,539.078,0.0
54173.0,STARLINK-5242,PAYLOAD,2023-02-25 11:51:09,15.08834024,0.0001067,53.2167,298.5845,91.6875,268.424,-3.084e-05,-7.78e-06,0.0,0 STARLINK-5242,1 54173U 22141S   23056.49386429 -.00000778  00000-0 -30840-4 0  9994,2 54173  53.2167 298.5845 0001067  91.6875 268.4240 15.08834024 18568,6917.899,95.438,540.502,539.026,0.0
54173.0,STARLINK-5242,PAYLOAD,2023-02-25 21:23:28,15.08838057,0.0001047,53.2166,296.8003,92.4467,267.6645,-0.00012831,-2.329e-05,0.0,0 STARLINK-5242,1 54173U 22141S   23056.89130736 -.00002329  00000-0 -12831-3 0  9999,2 54173  53.2166 296.8003 0001047  92.4467 267.6645 15.08838057 18625,6917.886,95.438,540.476,539.027,0.0
54173.0,STARLINK-5242,PAYLOAD,2023-02-25 22:58:51,15.08842316,0.0001084,53.2166,296.5026,92.0519,268.0597,-8.9623e-05,-1.714e-05,0.0,0 STARLINK-5242,1 54173U 22141S   23056.95754334 -.00001714  00000-0 -89623-4 0  9993,2 54173  53.2166 296.5026 0001084  92.0519 268.0597 15.08842316 18637,6917.873,95.437,540.488,538.988,0.0
54173.0,STARLINK-5242,PAYLOAD,2023-02-26 18:03:28,15.08835346,0.0001018,53.2166,292.9343,99.2106,260.9001,0.00017481,2.495e-05,0.0,0 STARLINK-5242,1 54173U 22141S   23057.75241670  .00002495  00000-0  17481-3 0  9993,2 54173  53.2166 292.9343 0001018  99.2106 260.9001 15.08835346 18756,6917.895,95.438,540.464,539.055,0.0
54173.0,STARLINK-5242,PAYLOAD,2023-02-26 22:49:37,15.08845971,0.0001023,53.2164,292.0426,102.9105,257.2001,0.00015372,2.16e-05,0.0,0 STARLINK-5242,1 54173U 22141S   23057.95113037  .00002160  00000-0  15372-3 0  9996,2 54173  53.2164 292.0426 0001023 102.9105 257.2001 15.08845971 18781,6917.862,95.437,540.435,539.019,0.0
54173.0,STARLINK-5242,PAYLOAD,2023-02-27 17:54:15,15.08843159,9.02e-05,53.2163,288.4751,96.4247,263.6848,0.00010692,1.414e-05,0.0,0 STARLINK-5242,1 54173U 22141S   23058.74601151  .00001414  00000-0  10692-3 0  9994,2 54173  53.2163 288.4751 0000902  96.4247 263.6848 15.08843159 18909,6917.871,95.437,540.36,539.112,0.0
54173.0,STARLINK-5242,PAYLOAD,2023-02-28 00:15:47,15.08855066,8.63e-05,53.2162,287.2848,86.2124,273.8967,0.00014911,2.087e-05,0.0,0 STARLINK-5242,1 54173U 22141S   23059.01096182  .00002087  00000-0  14911-3 0  9992,2 54173  53.2162 287.2848 0000863  86.2124 273.8967 15.08855066 18948,6917.834,95.437,540.296,539.102,0.0
54173.0,STARLINK-5242,PAYLOAD,2023-02-28 19:20:28,15.08817815,0.0001223,53.2163,283.7168,86.5946,273.5186,-0.0002595,-4.413e-05,0.0,0 STARLINK-5242,1 54173U 22141S   23059.80588556 -.00004413  00000-0 -25950-3 0  9992,2 54173  53.2163 283.7168 0001223  86.5946 273.5186 15.08817815 19065,6917.948,95.439,540.659,538.967,0.0
54173.0,STARLINK-5242,PAYLOAD,2023-02-28 20:55:51,15.08817054,0.0001202,53.2164,283.4194,87.6325,272.4805,-0.00026419,-4.487e-05,0.0,0 STARLINK-5242,1 54173U 22141S   23059.87212689 -.00004487  00000-0 -26419-3 0  9992,2 54173  53.2164 283.4194 0001202  87.6325 272.4805 15.08817054 19074,6917.951,95.439,540.647,538.984,0.0
54173.0,STARLINK-5242,PAYLOAD,2023-03-01 17:35:51,15.08834631,0.0001411,53.2158,279.5545,79.2293,280.8858,-0.00014411,-2.58e-05,0.0,0 STARLINK-5242,1 54173U 22141S   23060.73323947 -.00002580  00000-0 -14411-3 0  9990,2 54173  53.2158 279.5545 0001411  79.2293 280.8858 15.08834631 19202,6917.897,95.438,540.738,538.786,0.0
54173.0,STARLINK-5242,PAYLOAD,2023-03-01 20:46:37,15.08836277,0.000136,53.2153,278.9609,72.4488,287.6652,-7.9774e-05,-1.557e-05,0.0,0 STARLINK-5242,1 54173U 22141S   23060.86571743 -.00001557  00000-0 -79774-4 0  9990,2 54173  53.2153 278.9609 0001360  72.4488 287.6652 15.08836277 19222,6917.892,95.438,540.698,538.816,0.0
54173.0,STARLINK-5242,PAYLOAD,2023-03-01 23:57:23,15.08843844,0.0001417,53.2161,278.3629,83.1086,277.0067,-3.0983e-05,-7.81e-06,0.0,0 STARLINK-5242,1 54173U 22141S   23060.99819084 -.00000781  00000-0 -30983-4 0  9994,2 54173  53.2161 278.3629 0001417  83.1086 277.0067 15.08843844 19246,6917.869,95.437,540.714,538.753,0.0
54173.0,STARLINK-5242,PAYLOAD,2023-03-02 19:02:00,15.08838513,0.0001545,53.2159,274.7947,89.965,270.152,0.00034176,5.155e-05,0.0,0 STARLINK-5242,1 54173U 22141S   23061.79306379  .00005155  00000-0  34176-3 0  9996,2 54173  53.2159 274.7947 0001545  89.9650 270.1520 15.08838513 19367,6917.885,95.438,540.819,538.681,0.0
54173.0,STARLINK-5242,PAYLOAD,2023-03-02 23:48:09,15.08847895,0.0001564,53.2161,273.9016,91.1755,268.9416,0.00036424,5.515e-05,0.0,0 STARLINK-5242,1 54173U 22141S   23061.99177730  .00005515  00000-0  36424-3 0  9993,2 54173  53.2161 273.9016 0001564  91.1755 268.9416 15.08847895 19395,6917.856,95.437,540.803,538.639,0.0
54173.0,STARLINK-5242,PAYLOAD,2023-03-03 14:06:38,15.08853667,0.0001764,53.216,271.2197,119.0472,241.0698,3.0677e-05,2e-06,0.0,0 STARLINK-5242,1 54173U 22141S   23062.58794318  .00000200  00000-0  30677-4 0  9997,2 54173  53.2160 271.2197 0001764 119.0472 241.0698 15.08853667 19481,6917.839,95.437,540.924,538.483,0.0
54173.0,STARLINK-5242,PAYLOAD,2023-03-03 20:28:10,15.08857519,0.0001355,53.216,270.0369,87.8724,272.2423,0.0001072,1.419e-05,0.0,0 STARLINK-5242,1 54173U 22141S   23062.85289675  .00001419  00000-0  10720-3 0  9991,2 54173  53.2160 270.0369 0001355  87.8724 272.2423 15.08857519 19524,6917.827,95.436,540.629,538.754,0.0
54173.0,STARLINK-5242,PAYLOAD,2023-03-03 23:38:56,15.08862741,0.0001391,53.2168,269.4411,87.0875,273.0276,0.00013357,1.84e-05,0.0,0 STARLINK-5242,1 54173U 22141S   23062.98537127  .00001840  00000-0  13357-3 0  9990,2 54173  53.2168 269.4411 0001391  87.0875 273.0276 15.08862741 19541,6917.811,95.436,540.638,538.714,0.0
54173.0,STARLINK-5242,PAYLOAD,2023-03-04 13:57:26,15.08838901,0.0001249,53.2161,266.7633,116.9837,243.1283,-0.00018552,-3.239e-05,0.0,0 STARLINK-5242,1 54173U 22141S   23063.58155229 -.00003239  00000-0 -18552-3 0  9994,2 54173  53.2161 266.7633 0001249 116.9837 243.1283 15.08838901 19639,6917.884,95.438,540.613,538.885,0.0
54173.0,STARLINK-5242,PAYLOAD,2023-03-04 20:18:58,15.08845186,0.0001306,53.2159,265.5757,103.4162,256.6976,-0.0001171,-2.151e-05,0.0,0 STARLINK-5242,1 54173U 22141S   23063.84650614 -.00002151  00000-0 -11710-3 0  9992,2 54173  53.2159 265.5757 0001306 103.4162 256.6976 15.08845186 19671,6917.865,95.437,540.633,538.826,0.0
54173.0,STARLINK-5242,PAYLOAD,2023-03-05 13:48:13,15.08837381,0.0001211,53.2166,262.305,98.4164,261.6965,-0.00012573,-2.288e-05,0.0,0 STARLINK-5242,1 54173U 22141S   23064.57515214 -.00002288  00000-0 -12573-3 0  9998,2 54173  53.2166 262.3050 0001211  98.4164 261.6965 15.08837381 19784,6917.888,95.438,540.591,538.916,0.0
54173.0,STARLINK-5242,PAYLOAD,2023-03-05 20:09:45,15.08844304,0.0001281,53.217,261.1171,94.1862,265.9276,-5.0821e-05,-1.097e-05,0.0,0 STARLINK-5242,1 54173U 22141S   23064.84010600 -.00001097  00000-0 -50821-4 0  9993,2 54173  53.2170 261.1171 0001281  94.1862 265.9276 15.08844304 19825,6917.867,95.437,540.618,538.846,0.0
54173.0,STARLINK-5242,PAYLOAD,2023-03-05 23:20:31,15.08847567,0.0001351,53.2172,260.5214,93.9706,266.144,-2.1697e-05,-6.33e-06,0.0,0 STARLINK-5242,1 54173U 22141S   23064.97258319 -.00000633  00000-0 -21697-4 0  9992,2 54173  53.2172 260.5214 0001351  93.9706 266.1440 15.08847567 19842,6917.857,95.437,540.657,538.788,0.0
54173.0,STARLINK-5242,PAYLOAD,2023-03-06 15:14:23,15.08835752,0.0001339,53.2174,257.5484,104.3125,255.8016,8.7502e-05,1.105e-05,0.0,0 STARLINK-5242,1 54173U 22141S   23065.63498868  .00001105  00000-0  87502-4 0  9991,2 54173  53.2174 257.5484 0001339 104.3125 255.8016 15.08835752 19945,6917.893,95.438,540.685,538.832,0.0
54173.0,STARLINK-5242,PAYLOAD,2023-03-06 21:35:55,15.08839662,0.0001338,53.2174,256.359,103.1589,256.9553,0.00011656,1.568e-05,0.0,0 STARLINK-5242,1 54173U 22141S   23065.89994654  .00001568  00000-0  11656-3 0  9992,2 54173  53.2174 256.3590 0001338 103.1589 256.9553 15.08839662 19986,6917.881,95.438,540.672,538.821,0.0
54173.0,STARLINK-5242,PAYLOAD,2023-03-07 21:26:42,15.08841807,0.0001361,53.2176,251.9008,83.6432,276.4715,9.0566e-05,1.154e-05,0.0,0 STARLINK-5242,1 54173U 22141S   23066.89354842  .00001154  00000-0  90566-4 0  9991,2 54173  53.2176 251.9008 0001361  83.6432 276.4715 15.08841807 20138,6917.875,95.437,540.681,538.798,0.0
54173.0,STARLINK-5242,PAYLOAD,2023-03-08 11:45:12,15.0881534,0.0001254,53.2163,249.2226,78.5916,281.5217,0.00023274,3.416e-05,0.0,0 STARLINK-5242,1 54173U 22141S   23067.48972341  .00003416  00000-0  23274-3 0  9991,2 54173  53.2163 249.2226 0001254  78.5916 281.5217 15.08815340 20224,6917.956,95.439,540.688,538.953,0.0
54173.0,STARLINK-5242,PAYLOAD,2023-03-08 18:06:43,15.08840277,0.0001063,53.217,248.0323,70.206,289.9046,-1.1674e-05,-4.74e-06,0.0,0 STARLINK-5242,1 54173U 22141S   23067.75467294 -.00000474  00000-0 -11674-4 0  9992,2 54173  53.2170 248.0323 0001063  70.2060 289.9046 15.08840277 20267,6917.88,95.438,540.48,539.009,0.0
